{
  "type": "FeatureCollection",
  "features": [
    {
      "type": "Feature",
      "properties": {
        "norad_id": 35432,
        "name": "COSMOS 2251 DEB",
        "group": "cosmos-2251-debris",
        "lat": 42.05238290385573,
        "lon": -171.00141259127835,
        "alt_km": 504.61403526435333,
        "timestamp": "2025-12-08T17:43:05.333948+00:00",
        "meta_object_name": "COSMOS 2251 DEB",
        "meta_object_id": "1993-036AKA",
        "meta_epoch": "2025-12-07T20:36:32.304672",
        "meta_mean_motion": 15.21390492,
        "meta_eccentricity": 0.00123425,
        "meta_inclination": 74.0217,
        "meta_ra_of_asc_node": 25.8267,
        "meta_arg_of_pericenter": 346.6851,
        "meta_mean_anomaly": 13.4019,
        "meta_ephemeris_type": 0,
        "meta_classification_type": "U",
        "meta_norad_cat_id": 35432,
        "meta_element_set_no": 999,
        "meta_rev_at_epoch": 87429,
        "meta_bstar": 0.0062589936,
        "meta_mean_motion_dot": 0.00143455,
        "meta_mean_motion_ddot": 0,
        "tle_line1": "1 35432U 93036AKA 25341.85870723  .00143455  00000+0  62590-2 0  9998",
        "tle_line2": "2 35432  74.0217  25.8267 0012342 346.6851  13.4019 15.21390492874299"
      },
      "geometry": {
        "type": "Point",
        "coordinates": [
          -171.00141259127835,
          42.05238290385573
        ]
      }
    },
    {
      "type": "Feature",
      "properties": {
        "norad_id": 35433,
        "name": "COSMOS 2251 DEB",
        "group": "cosmos-2251-debris",
        "lat": 44.03452864495777,
        "lon": 149.71000268028445,
        "alt_km": 772.2120500108267,
        "timestamp": "2025-12-08T17:43:05.333958+00:00",
        "meta_object_name": "COSMOS 2251 DEB",
        "meta_object_id": "1993-036AKB",
        "meta_epoch": "2025-12-05T19:38:16.327392",
        "meta_mean_motion": 14.34730306,
        "meta_eccentricity": 0.00254596,
        "meta_inclination": 74.0335,
        "meta_ra_of_asc_node": 351.128,
        "meta_arg_of_pericenter": 48.4343,
        "meta_mean_anomaly": 128.9694,
        "meta_ephemeris_type": 0,
        "meta_classification_type": "U",
        "meta_norad_cat_id": 35433,
        "meta_element_set_no": 999,
        "meta_rev_at_epoch": 86481,
        "meta_bstar": 0.00044039966,
        "meta_mean_motion_dot": 1.226e-05,
        "meta_mean_motion_ddot": 0,
        "tle_line1": "1 35433U 93036AKB 25339.81824453  .00001226  00000+0  44040-3 0  9991",
        "tle_line2": "2 35433  74.0335 351.1280 0025459  48.4343 128.9694 14.34730306864810"
      },
      "geometry": {
        "type": "Point",
        "coordinates": [
          149.71000268028445,
          44.03452864495777
        ]
      }
    },
    {
      "type": "Feature",
      "properties": {
        "norad_id": 35434,
        "name": "COSMOS 2251 DEB",
        "group": "cosmos-2251-debris",
        "lat": 1.964346866068415,
        "lon": 40.28528406586192,
        "alt_km": 834.2721401772715,
        "timestamp": "2025-12-08T17:43:05.333969+00:00",
        "meta_object_name": "COSMOS 2251 DEB",
        "meta_object_id": "1993-036AKC",
        "meta_epoch": "2025-12-07T22:21:11.338272",
        "meta_mean_motion": 14.25665764,
        "meta_eccentricity": 0.00875677,
        "meta_inclination": 74.0404,
        "meta_ra_of_asc_node": 222.3034,
        "meta_arg_of_pericenter": 294.0481,
        "meta_mean_anomaly": 65.1521,
        "meta_ephemeris_type": 0,
        "meta_classification_type": "U",
        "meta_norad_cat_id": 35434,
        "meta_element_set_no": 999,
        "meta_rev_at_epoch": 86049,
        "meta_bstar": 0.00094505461,
        "meta_mean_motion_dot": 2.307e-05,
        "meta_mean_motion_ddot": 0,
        "tle_line1": "1 35434U 93036AKC 25341.93138123  .00002307  00000+0  94505-3 0  9992",
        "tle_line2": "2 35434  74.0404 222.3034 0087567 294.0481  65.1521 14.25665764860490"
      },
      "geometry": {
        "type": "Point",
        "coordinates": [
          40.28528406586192,
          1.964346866068415
        ]
      }
    },
    {
      "type": "Feature",
      "properties": {
        "norad_id": 35435,
        "name": "COSMOS 2251 DEB",
        "group": "cosmos-2251-debris",
        "lat": -25.488618435416655,
        "lon": 104.08575282842685,
        "alt_km": 643.8465994077987,
        "timestamp": "2025-12-08T17:43:05.333980+00:00",
        "meta_object_name": "COSMOS 2251 DEB",
        "meta_object_id": "1993-036AKD",
        "meta_epoch": "2025-12-06T15:33:19.570752",
        "meta_mean_motion": 14.78155636,
        "meta_eccentricity": 0.00089158,
        "meta_inclination": 74.011,
        "meta_ra_of_asc_node": 116.0521,
        "meta_arg_of_pericenter": 210.6381,
        "meta_mean_anomaly": 164.7127,
        "meta_ephemeris_type": 0,
        "meta_classification_type": "U",
        "meta_norad_cat_id": 35435,
        "meta_element_set_no": 999,
        "meta_rev_at_epoch": 87449,
        "meta_bstar": 0.0041982547,
        "meta_mean_motion_dot": 0.00030535,
        "meta_mean_motion_ddot": 0,
        "tle_line1": "1 35435U 93036AKD 25340.64814318  .00030535  00000+0  41983-2 0  9992",
        "tle_line2": "2 35435  74.0110 116.0521 0008915 210.6381 164.7127 14.78155636874491"
      },
      "geometry": {
        "type": "Point",
        "coordinates": [
          104.08575282842685,
          -25.488618435416655
        ]
      }
    },
    {
      "type": "Feature",
      "properties": {
        "norad_id": 35439,
        "name": "COSMOS 2251 DEB",
        "group": "cosmos-2251-debris",
        "lat": 53.376438398279994,
        "lon": 164.27233421539285,
        "alt_km": 954.8311748217839,
        "timestamp": "2025-12-08T17:43:05.333990+00:00",
        "meta_object_name": "COSMOS 2251 DEB",
        "meta_object_id": "1993-036AKH",
        "meta_epoch": "2025-12-08T04:32:22.387200",
        "meta_mean_motion": 13.92777063,
        "meta_eccentricity": 0.02417559,
        "meta_inclination": 74.0186,
        "meta_ra_of_asc_node": 142.5356,
        "meta_arg_of_pericenter": 312.8367,
        "meta_mean_anomaly": 228.9661,
        "meta_ephemeris_type": 0,
        "meta_classification_type": "U",
        "meta_norad_cat_id": 35439,
        "meta_element_set_no": 999,
        "meta_rev_at_epoch": 83897,
        "meta_bstar": 0.0018631415,
        "meta_mean_motion_dot": 3.041e-05,
        "meta_mean_motion_ddot": 0,
        "tle_line1": "1 35439U 93036AKH 25342.18914800  .00003041  00000+0  18631-2 0  9990",
        "tle_line2": "2 35439  74.0186 142.5356 0241755 312.8367 228.9661 13.92777063838976"
      },
      "geometry": {
        "type": "Point",
        "coordinates": [
          164.27233421539285,
          53.376438398279994
        ]
      }
    },
    {
      "type": "Feature",
      "properties": {
        "norad_id": 35440,
        "name": "COSMOS 2251 DEB",
        "group": "cosmos-2251-debris",
        "lat": 63.1407273834284,
        "lon": 0.9078362514115239,
        "alt_km": 678.4552137294595,
        "timestamp": "2025-12-08T17:43:05.334001+00:00",
        "meta_object_name": "COSMOS 2251 DEB",
        "meta_object_id": "1993-036AKJ",
        "meta_epoch": "2025-12-06T22:42:44.249472",
        "meta_mean_motion": 14.68767431,
        "meta_eccentricity": 0.00690638,
        "meta_inclination": 74.015,
        "meta_ra_of_asc_node": 218.8517,
        "meta_arg_of_pericenter": 1.0906,
        "meta_mean_anomaly": 359.0401,
        "meta_ephemeris_type": 0,
        "meta_classification_type": "U",
        "meta_norad_cat_id": 35440,
        "meta_element_set_no": 999,
        "meta_rev_at_epoch": 68680,
        "meta_bstar": 0.00081984037,
        "meta_mean_motion_dot": 4.928e-05,
        "meta_mean_motion_ddot": 0,
        "tle_line1": "1 35440U 93036AKJ 25340.94634548  .00004928  00000+0  81984-3 0  9999",
        "tle_line2": "2 35440  74.0150 218.8517 0069063   1.0906 359.0401 14.68767431686804"
      },
      "geometry": {
        "type": "Point",
        "coordinates": [
          0.9078362514115239,
          63.1407273834284
        ]
      }
    },
    {
      "type": "Feature",
      "properties": {
        "norad_id": 35441,
        "name": "COSMOS 2251 DEB",
        "group": "cosmos-2251-debris",
        "lat": 24.34409682027727,
        "lon": 118.32780074690642,
        "alt_km": 666.9479315804701,
        "timestamp": "2025-12-08T17:43:05.334012+00:00",
        "meta_object_name": "COSMOS 2251 DEB",
        "meta_object_id": "1993-036AKK",
        "meta_epoch": "2025-12-06T04:16:00.147072",
        "meta_mean_motion": 14.62424677,
        "meta_eccentricity": 0.00374671,
        "meta_inclination": 74.1332,
        "meta_ra_of_asc_node": 310.5953,
        "meta_arg_of_pericenter": 209.6577,
        "meta_mean_anomaly": 150.2468,
        "meta_ephemeris_type": 0,
        "meta_classification_type": "U",
        "meta_norad_cat_id": 35441,
        "meta_element_set_no": 999,
        "meta_rev_at_epoch": 87334,
        "meta_bstar": 0.0026738741,
        "meta_mean_motion_dot": 0.00013668,
        "meta_mean_motion_ddot": 0,
        "tle_line1": "1 35441U 93036AKK 25340.17777948  .00013668  00000+0  26739-2 0  9994",
        "tle_line2": "2 35441  74.1332 310.5953 0037467 209.6577 150.2468 14.62424677873342"
      },
      "geometry": {
        "type": "Point",
        "coordinates": [
          118.32780074690642,
          24.34409682027727
        ]
      }
    }
  ]
}